NOAA 15                 
1 25338U 98030A   22307.47299696  .00000181  00000+0  93772-4 0  9998
2 25338  98.6326 335.1180 0009376 249.9995 110.0176 14.26190585273087
DMSP 5D-3 F15 (USA 147) 
1 25991U 99067A   22307.50160201  .00000234  00000+0  14058-3 0  9995
2 25991  99.0636 301.5271 0010521 149.9547  21.8018 14.16591920183479
DMSP 5D-3 F16 (USA 172) 
1 28054U 03048A   22307.47718962  .00000188  00000+0  12363-3 0  9996
2 28054  99.0005 299.0808 0006438 288.0385 224.3823 14.13701785982667
NOAA 18                 
1 28654U 05018A   22307.44289314  .00000224  00000+0  14474-3 0  9998
2 28654  98.9364  17.6816 0013340 300.2925  59.6926 14.12800408899693
METEOSAT-9 (MSG-2)      
1 28912U 05049B   22306.48231616  .00000123  00000+0  00000+0 0  9998
2 28912   6.3287  65.3672 0001781 186.5355   9.1896  1.00275221 61773
EWS-G1 (GOES 13)        
1 29155U 06018A   22307.11507823  .00000031  00000+0  00000+0 0  9990
2 29155   0.9264  94.4437 0006667 132.2809 278.4351  1.00270033 60255
DMSP 5D-3 F17 (USA 191) 
1 29522U 06050A   22307.46555141  .00000193  00000+0  12421-3 0  9991
2 29522  98.7643 319.9019 0009178 221.0529 138.9954 14.14131913825559
FENGYUN 3A              
1 32958U 08026A   22306.90869741  .00000183  00000+0  10849-3 0  9996
2 32958  98.5226 263.9983 0008585 350.6670   9.4346 14.18756151747962
FENGYUN 2E              
1 33463U 08066A   22306.84916743 -.00000204  00000+0  00000+0 0  9999
2 33463   6.2109  64.4537 0000668  49.1815 320.5334  1.00265909 50834
NOAA 19                 
1 33591U 09005A   22307.53090698  .00000240  00000+0  15454-3 0  9996
2 33591  99.1336 344.4999 0014360 154.2081 205.9809 14.12631777708086
GOES 14                 
1 35491U 09033A   22307.49893490 -.00000102  00000+0  00000+0 0  9999
2 35491   0.2721 265.4574 0018296 313.4557 259.2092  1.00272191 48906
METEOR-M 1              
1 35865U 09049A   22306.90720658  .00000180  00000+0  10021-3 0  9994
2 35865  98.5481 273.0299 0002407 156.2124 203.9166 14.22373403681360
DMSP 5D-3 F18 (USA 210) 
1 35951U 09057A   22307.49466665  .00000282  00000+0  17257-3 0  9990
2 35951  98.7401 283.5645 0012115  53.7809 306.4482 14.13580891672753
GOES 15                 
1 36411U 10008A   22307.52242093  .00000047  00000+0  00000+0 0  9994
2 36411   0.2310 279.7057 0003854 266.3870 276.3411  1.00272866 46402
COMS 1                  
1 36744U 10032A   22306.84334051 -.00000351  00000+0  00000+0 0  9999
2 36744   1.4303  91.8243 0000875 132.3067 249.7403  1.00270456 37831
FENGYUN 3B              
1 37214U 10059A   22307.51172192 -.00000014  00000+0  17015-4 0  9997
2 37214  99.0941 315.9678 0021637 325.1802  34.7962 14.14271463620619
SUOMI NPP               
1 37849U 11061A   22307.48807387  .00000126  00000+0  80619-4 0  9995
2 37849  98.7442 244.1673 0000974  86.5259  25.5377 14.19557159570917
FENGYUN 2F              
1 38049U 12002A   22306.92592378 -.00000362  00000+0  00000+0 0  9997
2 38049   4.1286  78.6049 0002092 276.8870 131.7632  1.00285013 39636
METEOSAT-10 (MSG-3)     
1 38552U 12035B   22306.44980073  .00000056  00000+0  00000+0 0  9991
2 38552   1.7442  48.1317 0001286 153.8222  11.1764  1.00278612 37598
METOP-B                 
1 38771U 12049A   22307.49309803  .00000145  00000+0  86406-4 0  9999
2 38771  98.7130   5.2583 0001043  58.4841 313.1925 14.21489087525489
FENGYUN 3C              
1 39260U 13052A   22307.54985491  .00000081  00000+0  61983-4 0  9999
2 39260  98.4454 328.5640 0010118 230.3588 129.6697 14.15955225471601
METEOR-M 2              
1 40069U 14037A   22307.48705944  .00000024  00000+0  30202-4 0  9995
2 40069  98.4295 318.9324 0004580 281.8982  78.1683 14.20724501431606
HIMAWARI-8              
1 40267U 14060A   22306.84633819 -.00000284  00000+0  00000+0 0  9998
2 40267   0.0374 128.4525 0001433 118.0655 240.9228  1.00268038 29500
FENGYUN 2G              
1 40367U 14090A   22307.64108435 -.00000306  00000+0  00000+0 0  9997
2 40367   2.2810  87.9983 0001374 215.4032  69.3617  1.00281648 28788
METEOSAT-11 (MSG-4)     
1 40732U 15034A   22305.68425112 -.00000004  00000+0  00000+0 0  9993
2 40732   0.5921  75.3898 0000293 128.4063  83.9798  1.00281756 26757
ELEKTRO-L 2             
1 41105U 15074A   22306.90081006 -.00000120  00000+0  00000+0 0  9997
2 41105   3.3318  86.4629 0002584 126.5463 139.0161  1.00271058 25251
HIMAWARI-9              
1 41836U 16064A   22306.84633822 -.00000283  00000+0  00000+0 0  9990
2 41836   0.0427  85.5589 0000804 128.1114 273.8796  1.00271288 21933
GOES 16                 
1 41866U 16071A   22307.51881528 -.00000256  00000+0  00000+0 0  9994
2 41866   0.0434 276.1354 0000622 337.3858 260.8424  1.00271101 21858
FENGYUN 4A              
1 41882U 16077A   22307.64509164 -.00000337  00000+0  00000+0 0  9995
2 41882   0.1349 288.8118 0004695 118.4170 332.5170  1.00267808 21730
CYGFM05                 
1 41884U 16078A   22307.00491416  .00005527  00000+0  27250-3 0  9993
2 41884  34.9566  58.4684 0015127 254.0426 105.8620 15.17190015325938
CYGFM04                 
1 41885U 16078B   22306.67872442  .00005771  00000+0  28017-3 0  9991
2 41885  34.9502  48.9497 0013597 268.7448  91.1707 15.17736259325838
CYGFM02                 
1 41886U 16078C   22306.60027397  .00005842  00000+0  28327-3 0  9999
2 41886  34.9592  51.6933 0014257 262.0663  97.8431 15.17774149325909
CYGFM01                 
1 41887U 16078D   22306.62981622  .00005599  00000+0  27760-3 0  9991
2 41887  34.9534  63.4234 0015526 250.1919 109.7119 15.16986182325720
CYGFM08                 
1 41888U 16078E   22307.49211236  .00005779  00000+0  28246-3 0  9995
2 41888  34.9510  50.0339 0014776 269.6000  90.3018 15.17486490326020
CYGFM06                 
1 41889U 16078F   22307.36850477  .00005540  00000+0  26859-3 0  9992
2 41889  34.9586  45.5526 0013370 268.6488  91.2693 15.17798339326093
CYGFM07                 
1 41890U 16078G   22307.49064891  .00005598  00000+0  27193-3 0  9990
2 41890  34.9527  43.6517 0013136 273.8483  86.0727 15.17729790326110
CYGFM03                 
1 41891U 16078H   22306.96303935  .00005392  00000+0  26205-3 0  9992
2 41891  34.9560  47.4509 0012633 267.2484  92.6782 15.17727191326027
FENGYUN 3D              
1 43010U 17072A   22307.45079063  .00000201  00000+0  11742-3 0  9993
2 43010  98.8303 251.4422 0000737 190.1132 170.0008 14.19107325257480
NOAA 20                 
1 43013U 17073A   22307.50068358  .00000116  00000+0  75890-4 0  9998
2 43013  98.7280 243.9337 0001421  64.2995 295.8328 14.19555794256955
GOES 17                 
1 43226U 18022A   22306.62042686  .00000090  00000+0  00000+0 0  9994
2 43226   0.0294 280.7236 0000428 276.5479 290.6440  1.00271417 17169
FENGYUN 2H              
1 43491U 18050A   22307.06291559 -.00000133  00000+0  00000+0 0  9992
2 43491   1.4961  94.4831 0003660  70.2853 339.2927  1.00270307 16252
METOP-C                 
1 43689U 18087A   22307.45706448  .00000143  00000+0  85341-4 0  9998
2 43689  98.7176   5.2444 0003160  15.0519 345.0752 14.21482746207059
GEO-KOMPSAT-2A          
1 43823U 18100A   22307.50320889 -.00000352  00000+0  00000+0 0  9998
2 43823   0.0168 100.1934 0000789  59.8355 192.1091  1.00266783 14409
METEOR-M2 2             
1 44387U 19038A   22307.44352585  .00000035  00000+0  34780-4 0  9990
2 44387  98.7419 267.2228 0000690 173.8198 186.2990 14.23727768173189
FENGYUN 3E              
1 49008U 21062A   22307.41948774 -.00000006  00000+0  17847-4 0  9997
2 49008  98.7176 307.2232 0001284 344.1241  15.9900 14.19743736 69031
GOES 18                 
1 51850U 22021A   22305.65690118  .00000090  00000+0  00000+0 0  9991
2 51850   0.0095  82.0046 0002233 142.5054 275.9891  1.00271347  2510
